[{"OBJECT_NAME":"STARLINK-36881","OBJECT_ID":"2026-038B","EPOCH":"2026-03-13T22:00:01.999584","MEAN_MOTION":15.75185512,"ECCENTRICITY":0.0001044,"INCLINATION":97.2839,"RA_OF_ASC_NODE":83.4334,"ARG_OF_PERICENTER":90.2116,"MEAN_ANOMALY":220.7028,"EPHEMERIS_TYPE":0,"CLASSIFICATION_TYPE":"U","NORAD_CAT_ID":67962,"ELEMENT_SET_NO":999,"REV_AT_EPOCH":387,"BSTAR":-0.00029775823,"MEAN_MOTION_DOT":-0.00044302,"MEAN_MOTION_DDOT":0},{"OBJECT_NAME":"STARLINK-36357","OBJECT_ID":"2026-038C","EPOCH":"2026-03-13T22:00:01.999584","MEAN_MOTION":15.75204901,"ECCENTRICITY":6.825e-5,"INCLINATION":97.2836,"RA_OF_ASC_NODE":83.4374,"ARG_OF_PERICENTER":102.3857,"MEAN_ANOMALY":220.5242,"EPHEMERIS_TYPE":0,"CLASSIFICATION_TYPE":"U","NORAD_CAT_ID":67963,"ELEMENT_SET_NO":999,"REV_AT_EPOCH":387,"BSTAR":-0.00051720732,"MEAN_MOTION_DOT":-0.00076631,"MEAN_MOTION_DDOT":0},{"OBJECT_NAME":"STARLINK-36349","OBJECT_ID":"2026-038D","EPOCH":"2026-03-13T22:00:01.999584","MEAN_MOTION":15.75175139,"ECCENTRICITY":0.00015958,"INCLINATION":97.2835,"RA_OF_ASC_NODE":83.4341,"ARG_OF_PERICENTER":90.897,"MEAN_ANOMALY":224.0085,"EPHEMERIS_TYPE":0,"CLASSIFICATION_TYPE":"U","NORAD_CAT_ID":67964,"ELEMENT_SET_NO":999,"REV_AT_EPOCH":387,"BSTAR":-0.00015669503,"MEAN_MOTION_DOT":-0.00023423,"MEAN_MOTION_DDOT":0},{"OBJECT_NAME":"STARLINK-36806","OBJECT_ID":"2026-038E","EPOCH":"2026-03-13T22:00:01.999584","MEAN_MOTION":15.7518971,"ECCENTRICITY":0.0001042,"INCLINATION":97.2831,"RA_OF_ASC_NODE":83.4391,"ARG_OF_PERICENTER":88.7907,"MEAN_ANOMALY":240.1066,"EPHEMERIS_TYPE":0,"CLASSIFICATION_TYPE":"U","NORAD_CAT_ID":67965,"ELEMENT_SET_NO":999,"REV_AT_EPOCH":387,"BSTAR":-0.00029207761,"MEAN_MOTION_DOT":-0.00043472,"MEAN_MOTION_DDOT":0},{"OBJECT_NAME":"STARLINK-36820","OBJECT_ID":"2026-038F","EPOCH":"2026-03-13T22:00:01.999584","MEAN_MOTION":15.75151783,"ECCENTRICITY":0.00012891,"INCLINATION":97.2836,"RA_OF_ASC_NODE":83.4418,"ARG_OF_PERICENTER":96.5458,"MEAN_ANOMALY":238.3482,"EPHEMERIS_TYPE":0,"CLASSIFICATION_TYPE":"U","NORAD_CAT_ID":67966,"ELEMENT_SET_NO":999,"REV_AT_EPOCH":387,"BSTAR":0.00038762836,"MEAN_MOTION_DOT":0.00057985,"MEAN_MOTION_DDOT":0},{"OBJECT_NAME":"STARLINK-36819","OBJECT_ID":"2026-038G","EPOCH":"2026-03-13T22:00:01.999584","MEAN_MOTION":15.72667458,"ECCENTRICITY":0.00014126,"INCLINATION":97.2808,"RA_OF_ASC_NODE":83.4431,"ARG_OF_PERICENTER":82.604,"MEAN_ANOMALY":256.0748,"EPHEMERIS_TYPE":0,"CLASSIFICATION_TYPE":"U","NORAD_CAT_ID":67967,"ELEMENT_SET_NO":999,"REV_AT_EPOCH":387,"BSTAR":-0.019324499,"MEAN_MOTION_DOT":-0.02248968,"MEAN_MOTION_DDOT":0},{"OBJECT_NAME":"STARLINK-36812","OBJECT_ID":"2026-038H","EPOCH":"2026-03-13T22:00:01.999584","MEAN_MOTION":15.7519511,"ECCENTRICITY":0.00011747,"INCLINATION":97.2819,"RA_OF_ASC_NODE":83.4443,"ARG_OF_PERICENTER":97.3065,"MEAN_ANOMALY":249.5978,"EPHEMERIS_TYPE":0,"CLASSIFICATION_TYPE":"U","NORAD_CAT_ID":67968,"ELEMENT_SET_NO":999,"REV_AT_EPOCH":387,"BSTAR":-0.00054512523,"MEAN_MOTION_DOT":-0.00080692,"MEAN_MOTION_DDOT":0},{"OBJECT_NAME":"STARLINK-36709","OBJECT_ID":"2026-038J","EPOCH":"2026-03-13T22:00:01.999584","MEAN_MOTION":15.75249183,"ECCENTRICITY":0.00012759,"INCLINATION":97.2831,"RA_OF_ASC_NODE":83.4515,"ARG_OF_PERICENTER":82.0902,"MEAN_ANOMALY":278.7636,"EPHEMERIS_TYPE":0,"CLASSIFICATION_TYPE":"U","NORAD_CAT_ID":67969,"ELEMENT_SET_NO":999,"REV_AT_EPOCH":387,"BSTAR":-0.0007100613,"MEAN_MOTION_DOT":-0.00105017,"MEAN_MOTION_DDOT":0},{"OBJECT_NAME":"STARLINK-36319","OBJECT_ID":"2026-038K","EPOCH":"2026-03-13T22:00:01.999584","MEAN_MOTION":15.75176358,"ECCENTRICITY":0.00012139,"INCLINATION":97.2809,"RA_OF_ASC_NODE":83.4482,"ARG_OF_PERICENTER":76.9828,"MEAN_ANOMALY":277.8871,"EPHEMERIS_TYPE":0,"CLASSIFICATION_TYPE":"U","NORAD_CAT_ID":67970,"ELEMENT_SET_NO":999,"REV_AT_EPOCH":384,"BSTAR":-9.0316293e-5,"MEAN_MOTION_DOT":-0.00013571,"MEAN_MOTION_DDOT":0},{"OBJECT_NAME":"STARLINK-36710","OBJECT_ID":"2026-038L","EPOCH":"2026-03-13T22:00:01.999584","MEAN_MOTION":15.75172384,"ECCENTRICITY":0.00013239,"INCLINATION":97.2832,"RA_OF_ASC_NODE":83.4554,"ARG_OF_PERICENTER":91.6777,"MEAN_ANOMALY":279.2026,"EPHEMERIS_TYPE":0,"CLASSIFICATION_TYPE":"U","NORAD_CAT_ID":67971,"ELEMENT_SET_NO":999,"REV_AT_EPOCH":387,"BSTAR":-0.00011531691,"MEAN_MOTION_DOT":-0.00017282,"MEAN_MOTION_DDOT":0},{"OBJECT_NAME":"STARLINK-36894","OBJECT_ID":"2026-038M","EPOCH":"2026-03-13T22:00:01.999584","MEAN_MOTION":15.75133383,"ECCENTRICITY":0.00012251,"INCLINATION":97.2804,"RA_OF_ASC_NODE":83.4571,"ARG_OF_PERICENTER":92.8742,"MEAN_ANOMALY":284.0168,"EPHEMERIS_TYPE":0,"CLASSIFICATION_TYPE":"U","NORAD_CAT_ID":67972,"ELEMENT_SET_NO":999,"REV_AT_EPOCH":387,"BSTAR":0.00079741202,"MEAN_MOTION_DOT":0.00120201,"MEAN_MOTION_DDOT":0},{"OBJECT_NAME":"STARLINK-36900","OBJECT_ID":"2026-038N","EPOCH":"2026-03-13T22:00:01.999584","MEAN_MOTION":15.75131399,"ECCENTRICITY":0.0001258,"INCLINATION":97.2799,"RA_OF_ASC_NODE":83.4609,"ARG_OF_PERICENTER":78.6139,"MEAN_ANOMALY":310.2814,"EPHEMERIS_TYPE":0,"CLASSIFICATION_TYPE":"U","NORAD_CAT_ID":67973,"ELEMENT_SET_NO":999,"REV_AT_EPOCH":387,"BSTAR":0.00046120009,"MEAN_MOTION_DOT":0.00069043,"MEAN_MOTION_DDOT":0},{"OBJECT_NAME":"STARLINK-36901","OBJECT_ID":"2026-038P","EPOCH":"2026-03-13T22:00:01.999584","MEAN_MOTION":15.75192899,"ECCENTRICITY":0.00014476,"INCLINATION":97.2788,"RA_OF_ASC_NODE":83.4582,"ARG_OF_PERICENTER":103.368,"MEAN_ANOMALY":279.5076,"EPHEMERIS_TYPE":0,"CLASSIFICATION_TYPE":"U","NORAD_CAT_ID":67974,"ELEMENT_SET_NO":999,"REV_AT_EPOCH":387,"BSTAR":-0.00039035266,"MEAN_MOTION_DOT":-0.00057967,"MEAN_MOTION_DDOT":0},{"OBJECT_NAME":"STARLINK-36883","OBJECT_ID":"2026-038Q","EPOCH":"2026-03-13T22:00:01.999584","MEAN_MOTION":15.75106367,"ECCENTRICITY":9.33e-5,"INCLINATION":97.2767,"RA_OF_ASC_NODE":83.4729,"ARG_OF_PERICENTER":89.9845,"MEAN_ANOMALY":328.9191,"EPHEMERIS_TYPE":0,"CLASSIFICATION_TYPE":"U","NORAD_CAT_ID":67975,"ELEMENT_SET_NO":999,"REV_AT_EPOCH":387,"BSTAR":0.00087879798,"MEAN_MOTION_DOT":0.00132519,"MEAN_MOTION_DDOT":0},{"OBJECT_NAME":"STARLINK-36880","OBJECT_ID":"2026-038R","EPOCH":"2026-03-13T22:00:01.999584","MEAN_MOTION":15.73854398,"ECCENTRICITY":0.00014212,"INCLINATION":97.2778,"RA_OF_ASC_NODE":83.4639,"ARG_OF_PERICENTER":70.0691,"MEAN_ANOMALY":326.1924,"EPHEMERIS_TYPE":0,"CLASSIFICATION_TYPE":"U","NORAD_CAT_ID":67976,"ELEMENT_SET_NO":999,"REV_AT_EPOCH":387,"BSTAR":-0.018502775,"MEAN_MOTION_DOT":-0.02263961,"MEAN_MOTION_DDOT":0},{"OBJECT_NAME":"STARLINK-36904","OBJECT_ID":"2026-038S","EPOCH":"2026-03-13T22:00:01.999584","MEAN_MOTION":15.75164116,"ECCENTRICITY":6.7e-5,"INCLINATION":97.2764,"RA_OF_ASC_NODE":83.4693,"ARG_OF_PERICENTER":64.5891,"MEAN_ANOMALY":346.2625,"EPHEMERIS_TYPE":0,"CLASSIFICATION_TYPE":"U","NORAD_CAT_ID":67977,"ELEMENT_SET_NO":999,"REV_AT_EPOCH":387,"BSTAR":0.00051924213,"MEAN_MOTION_DOT":0.00077939,"MEAN_MOTION_DDOT":0}]
