STARLINK-36881          
1 67962U 26038B   26072.91668981 -.00044302  00000+0 -29776-3 0  9992
2 67962  97.2839  83.4334 0001044  90.2116 220.7028 15.75185512  3872
STARLINK-36357          
1 67963U 26038C   26072.91668981 -.00076631  00000+0 -51721-3 0  9998
2 67963  97.2836  83.4374 0000682 102.3857 220.5242 15.75204901  3878
STARLINK-36349          
1 67964U 26038D   26072.91668981 -.00023423  00000+0 -15670-3 0  9993
2 67964  97.2835  83.4341 0001595  90.8970 224.0085 15.75175139  3877
STARLINK-36806          
1 67965U 26038E   26072.91668981 -.00043472  00000+0 -29208-3 0  9992
2 67965  97.2831  83.4391 0001042  88.7907 240.1066 15.75189710  3870
STARLINK-36820          
1 67966U 26038F   26072.91668981  .00057985  00000+0  38763-3 0  9991
2 67966  97.2836  83.4418 0001289  96.5458 238.3482 15.75151783  3877
STARLINK-36819          
1 67967U 26038G   26072.91668981 -.02248968  00000+0 -19324-1 0  9999
2 67967  97.2808  83.4431 0001412  82.6040 256.0748 15.72667458  3873
STARLINK-36812          
1 67968U 26038H   26072.91668981 -.00080692  00000+0 -54513-3 0  9997
2 67968  97.2819  83.4443 0001174  97.3065 249.5978 15.75195110  3870
STARLINK-36709          
1 67969U 26038J   26072.91668981 -.00105017  00000+0 -71006-3 0  9993
2 67969  97.2831  83.4515 0001275  82.0902 278.7636 15.75249183  3873
STARLINK-36319          
1 67970U 26038K   26072.91668981 -.00013571  00000+0 -90316-4 0  9994
2 67970  97.2809  83.4482 0001213  76.9828 277.8871 15.75176358  3845
STARLINK-36710          
1 67971U 26038L   26072.91668981 -.00017282  00000+0 -11532-3 0  9990
2 67971  97.2832  83.4554 0001323  91.6777 279.2026 15.75172384  3877
STARLINK-36894          
1 67972U 26038M   26072.91668981  .00120201  00000+0  79741-3 0  9991
2 67972  97.2804  83.4571 0001225  92.8742 284.0168 15.75133383  3879
STARLINK-36900          
1 67973U 26038N   26072.91668981  .00069043  00000+0  46120-3 0  9993
2 67973  97.2799  83.4609 0001258  78.6139 310.2814 15.75131399  3878
STARLINK-36901          
1 67974U 26038P   26072.91668981 -.00057967  00000+0 -39035-3 0  9995
2 67974  97.2788  83.4582 0001447 103.3680 279.5076 15.75192899  3873
STARLINK-36883          
1 67975U 26038Q   26072.91668981  .00132519  00000+0  87880-3 0  9992
2 67975  97.2767  83.4729 0000933  89.9845 328.9191 15.75106367  3877
STARLINK-36880          
1 67976U 26038R   26072.91668981 -.02263961  00000+0 -18503-1 0  9997
2 67976  97.2778  83.4639 0001421  70.0691 326.1924 15.73854398  3879
STARLINK-36904          
1 67977U 26038S   26072.91668981  .00077939  00000+0  51924-3 0  9998
2 67977  97.2764  83.4693 0000670  64.5891 346.2625 15.75164116  3875
